{
  "norad_id": 63289,
  "name": "COSMOS 2586 (RODNIK-S 20)",
  "history": [
    {
      "epoch": "2026-03-28T20:35:57.418944Z",
      "apogee_km": 1510.790930599862,
      "perigee_km": 1478.0992462195327,
      "latitude_deg": 5.8318009412953455e-05,
      "longitude_deg": -6.703256353293078,
      "height_km": 1512.9727457917595,
      "semi_major_axis_km": 7872.5820884096975,
      "eccentricity": 0.0020763,
      "inclination_deg": 82.4901,
      "raan_deg": 128.5587,
      "arg_perigee_deg": 194.5732,
      "mean_anomaly_deg": 165.4752,
      "mean_motion_rev_day": 12.42873606
    },
    {
      "epoch": "2026-03-29T04:19:37.559712Z",
      "apogee_km": 1510.8027098520824,
      "perigee_km": 1478.0874078483248,
      "latitude_deg": 3.7220030673470335e-05,
      "longitude_deg": -123.13838244665007,
      "height_km": 1513.0337619741968,
      "semi_major_axis_km": 7872.582058850204,
      "eccentricity": 0.0020778,
      "inclination_deg": 82.4901,
      "raan_deg": 128.3582,
      "arg_perigee_deg": 193.8634,
      "mean_anomaly_deg": 166.1878,
      "mean_motion_rev_day": 12.42873613
    },
    {
      "epoch": "2026-03-30T03:30:37.986336Z",
      "apogee_km": 1510.8292185051114,
      "perigee_km": 1478.0603840155454,
      "latitude_deg": -7.183928570373931e-05,
      "longitude_deg": -112.4436843035785,
      "height_km": 1513.1930586619462,
      "semi_major_axis_km": 7872.581801260329,
      "eccentricity": 0.0020812,
      "inclination_deg": 82.4899,
      "raan_deg": 127.7568,
      "arg_perigee_deg": 191.7475,
      "mean_anomaly_deg": 168.3121,
      "mean_motion_rev_day": 12.42873674
    },
    {
      "epoch": "2026-03-30T13:10:13.164672Z",
      "apogee_km": 1510.8427119152648,
      "perigee_km": 1478.0471101902012,
      "latitude_deg": -1.5292974371853975e-05,
      "longitude_deg": 102.01243445014184,
      "height_km": 1513.2551520451298,
      "semi_major_axis_km": 7872.581911052733,
      "eccentricity": 0.0020829,
      "inclination_deg": 82.4897,
      "raan_deg": 127.5062,
      "arg_perigee_deg": 190.872,
      "mean_anomaly_deg": 169.1912,
      "mean_motion_rev_day": 12.42873648
    },
    {
      "epoch": "2026-03-31T20:04:53.712192Z",
      "apogee_km": 1510.8829172740716,
      "perigee_km": 1478.0054437480221,
      "latitude_deg": -1.7849720575862824e-05,
      "longitude_deg": -3.7277926596956847,
      "height_km": 1513.4255305073407,
      "semi_major_axis_km": 7872.581180511047,
      "eccentricity": 0.0020881,
      "inclination_deg": 82.4897,
      "raan_deg": 126.7044,
      "arg_perigee_deg": 188.0813,
      "mean_anomaly_deg": 171.9933,
      "mean_motion_rev_day": 12.42873821
    },
    {
      "epoch": "2026-04-02T01:03:39.221280Z",
      "apogee_km": 1510.9187079854482,
      "perigee_km": 1477.9688084799427,
      "latitude_deg": -3.4711432547501947e-06,
      "longitude_deg": -80.35934837340888,
      "height_km": 1513.5490964741643,
      "semi_major_axis_km": 7872.580758232695,
      "eccentricity": 0.0020927,
      "inclination_deg": 82.4895,
      "raan_deg": 125.9526,
      "arg_perigee_deg": 185.4488,
      "mean_anomaly_deg": 174.6367,
      "mean_motion_rev_day": 12.42873921
    },
    {
      "epoch": "2026-04-02T20:22:49.552896Z",
      "apogee_km": 1510.9404719238664,
      "perigee_km": 1477.9464871341606,
      "latitude_deg": -5.156318529971548e-05,
      "longitude_deg": -11.44712769438637,
      "height_km": 1513.6104146752978,
      "semi_major_axis_km": 7872.580479529013,
      "eccentricity": 0.0020955,
      "inclination_deg": 82.4893,
      "raan_deg": 125.4513,
      "arg_perigee_deg": 183.6855,
      "mean_anomaly_deg": 176.4073,
      "mean_motion_rev_day": 12.42873987
    },
    {
      "epoch": "2026-04-03T19:33:49.946688Z",
      "apogee_km": 1510.9702565486105,
      "perigee_km": 1477.916440696882,
      "latitude_deg": -2.4128408264456645e-05,
      "longitude_deg": -0.7523750117133527,
      "height_km": 1513.6669331908984,
      "semi_major_axis_km": 7872.580348622746,
      "eccentricity": 0.0020993,
      "inclination_deg": 82.4892,
      "raan_deg": 124.8498,
      "arg_perigee_deg": 181.5907,
      "mean_anomaly_deg": 178.5109,
      "mean_motion_rev_day": 12.42874018
    }
  ]
}